start=new Date('2022-03-24T00:00:00.000Z').valueOf();
sats=[{"EPHEMERIS_TYPE":"0","TLE_LINE2":"2 47870  53.0528 301.5122 0001845  60.8833 299.2340 15.06398616 57816","SITE":"AFETR","MEAN_ANOMALY":"299.2340","REV_AT_EPOCH":"5781","GP_ID":"199537611","MEAN_MOTION":"15.06398616","FILE":"3371636","ARG_OF_PERICENTER":"60.8833","RCS_SIZE":"LARGE","COUNTRY_CODE":"US","NORAD_CAT_ID":"47870","MEAN_ELEMENT_THEORY":"SGP4","LAUNCH_DATE":"2021-03-14","TLE_LINE1":"1 47870U 21021L   22082.89820860  .00002714  00000-0  20104-3 0  9991","INCLINATION":"53.0528","CENTER_NAME":"EARTH","ELEMENT_SET_NO":"999","OBJECT_TYPE":"PAYLOAD","ECCENTRICITY":"0.00018450","TIME_SYSTEM":"UTC","RA_OF_ASC_NODE":"301.5122","PERIAPSIS":"545.940","APOAPSIS":"548.496","SEMIMAJOR_AXIS":"6925.353","OBJECT_NAME":"STARLINK-2326","REF_FRAME":"TEME","MEAN_MOTION_DDOT":"0.0000000000000","MEAN_MOTION_DOT":"0.00002714","DECAY_DATE":null,"PERIOD":"95.592","OBJECT_ID":"2021-021L","BSTAR":"0.00020104000000","EPOCH":"2022-03-23T21:33:25.223040","CLASSIFICATION_TYPE":"U"},{"MEAN_MOTION_DDOT":"0.0000000000000","OBJECT_NAME":"STARLINK-2327","REF_FRAME":"TEME","SEMIMAJOR_AXIS":"6925.342","PERIAPSIS":"546.171","APOAPSIS":"548.244","EPOCH":"2022-03-23T19:26:42.284832","CLASSIFICATION_TYPE":"U","BSTAR":"0.00031384000000","PERIOD":"95.592","OBJECT_ID":"2021-021M","DECAY_DATE":null,"MEAN_MOTION_DOT":"0.00004396","OBJECT_TYPE":"PAYLOAD","ELEMENT_SET_NO":"999","INCLINATION":"53.0535","CENTER_NAME":"EARTH","TLE_LINE1":"1 47871U 21021M   22082.81021163  .00004396  00000-0  31384-3 0  9993","RA_OF_ASC_NODE":"276.9245","TIME_SYSTEM":"UTC","ECCENTRICITY":"0.00014970","ARG_OF_PERICENTER":"62.0405","MEAN_MOTION":"15.06402034","FILE":"3371636","LAUNCH_DATE":"2021-03-14","NORAD_CAT_ID":"47871","MEAN_ELEMENT_THEORY":"SGP4","COUNTRY_CODE":"US","RCS_SIZE":"LARGE","TLE_LINE2":"2 47871  53.0535 276.9245 0001497  62.0405 298.0735 15.06402034 58252","EPHEMERIS_TYPE":"0","GP_ID":"199538362","REV_AT_EPOCH":"5825","SITE":"AFETR","MEAN_ANOMALY":"298.0735"},{"TLE_LINE2":"2 47872  53.0641 230.6817 0001802  11.9129 348.1912 15.30218822 58913","EPHEMERIS_TYPE":"0","SITE":"AFETR","MEAN_ANOMALY":"348.1912","GP_ID":"199536610","REV_AT_EPOCH":"5891","ARG_OF_PERICENTER":"11.9129","MEAN_MOTION":"15.30218822","FILE":"3371636","COUNTRY_CODE":"US","RCS_SIZE":"LARGE","LAUNCH_DATE":"2021-03-14","NORAD_CAT_ID":"47872","MEAN_ELEMENT_THEORY":"SGP4","CENTER_NAME":"EARTH","INCLINATION":"53.0641","TLE_LINE1":"1 47872U 21021N   22082.81258448  .00048266  00000-0  16301-2 0  9997","OBJECT_TYPE":"PAYLOAD","ELEMENT_SET_NO":"999","TIME_SYSTEM":"UTC","ECCENTRICITY":"0.00018020","RA_OF_ASC_NODE":"230.6817","SEMIMAJOR_AXIS":"6853.296","PERIAPSIS":"473.926","APOAPSIS":"476.396","MEAN_MOTION_DDOT":"0.0000000000000","OBJECT_NAME":"STARLINK-2328","REF_FRAME":"TEME","PERIOD":"94.104","OBJECT_ID":"2021-021N","MEAN_MOTION_DOT":"0.00048266","DECAY_DATE":null,"EPOCH":"2022-03-23T19:30:07.299072","CLASSIFICATION_TYPE":"U","BSTAR":"0.00163010000000"},{"BSTAR":"0.00011492000000","CLASSIFICATION_TYPE":"U","EPOCH":"2022-03-23T20:35:42.315360","MEAN_MOTION_DOT":"0.00001431","DECAY_DATE":null,"OBJECT_ID":"2021-021P","PERIOD":"95.592","REF_FRAME":"TEME","OBJECT_NAME":"STARLINK-2329","MEAN_MOTION_DDOT":"0.0000000000000","PERIAPSIS":"546.129","APOAPSIS":"548.297","SEMIMAJOR_AXIS":"6925.348","RA_OF_ASC_NODE":"276.6990","ECCENTRICITY":"0.00015650","TIME_SYSTEM":"UTC","ELEMENT_SET_NO":"999","OBJECT_TYPE":"PAYLOAD","TLE_LINE1":"1 47873U 21021P   22082.85812865  .00001431  00000-0  11492-3 0  9991","CENTER_NAME":"EARTH","INCLINATION":"53.0566","MEAN_ELEMENT_THEORY":"SGP4","NORAD_CAT_ID":"47873","LAUNCH_DATE":"2021-03-14","RCS_SIZE":"LARGE","COUNTRY_CODE":"US","FILE":"3371636","MEAN_MOTION":"15.06400195","ARG_OF_PERICENTER":"64.6589","REV_AT_EPOCH":"5825","GP_ID":"199536860","MEAN_ANOMALY":"295.4562","SITE":"AFETR","EPHEMERIS_TYPE":"0","TLE_LINE2":"2 47873  53.0566 276.6990 0001565  64.6589 295.4562 15.06400195 58254"},{"DECAY_DATE":null,"MEAN_MOTION_DOT":"0.00000284","PERIOD":"95.592","OBJECT_ID":"2021-021Q","BSTAR":"0.00003792900000","EPOCH":"2022-03-23T19:12:43.979328","CLASSIFICATION_TYPE":"U","APOAPSIS":"548.284","PERIAPSIS":"546.122","SEMIMAJOR_AXIS":"6925.338","OBJECT_NAME":"STARLINK-2330","REF_FRAME":"TEME","MEAN_MOTION_DDOT":"0.0000000000000","ECCENTRICITY":"0.00015610","TIME_SYSTEM":"UTC","RA_OF_ASC_NODE":"231.9430","TLE_LINE1":"1 47874U 21021Q   22082.80050902  .00000284  00000-0  37929-4 0  9992","CENTER_NAME":"EARTH","INCLINATION":"53.0554","ELEMENT_SET_NO":"999","OBJECT_TYPE":"PAYLOAD","RCS_SIZE":"LARGE","COUNTRY_CODE":"US","NORAD_CAT_ID":"47874","MEAN_ELEMENT_THEORY":"SGP4","LAUNCH_DATE":"2021-03-14","MEAN_MOTION":"15.06403550","FILE":"3371636","ARG_OF_PERICENTER":"64.6512","SITE":"AFETR","MEAN_ANOMALY":"295.4639","REV_AT_EPOCH":"5888","GP_ID":"199538112","TLE_LINE2":"2 47874  53.0554 231.9430 0001561  64.6512 295.4639 15.06403550 58889","EPHEMERIS_TYPE":"0"},{"OBJECT_TYPE":"PAYLOAD","ELEMENT_SET_NO":"999","INCLINATION":"53.0540","CENTER_NAME":"EARTH","TLE_LINE1":"1 47875U 21021R   22082.84982810  .00002383  00000-0  17879-3 0  9992","RA_OF_ASC_NODE":"286.7438","TIME_SYSTEM":"UTC","ECCENTRICITY":"0.00014970","MEAN_MOTION_DDOT":"0.0000000000000","REF_FRAME":"TEME","OBJECT_NAME":"STARLINK-2331","SEMIMAJOR_AXIS":"6925.326","PERIAPSIS":"546.154","APOAPSIS":"548.228","CLASSIFICATION_TYPE":"U","EPOCH":"2022-03-23T20:23:45.147840","BSTAR":"0.00017879000000","OBJECT_ID":"2021-021R","PERIOD":"95.592","MEAN_MOTION_DOT":"0.00002383","DECAY_DATE":null,"EPHEMERIS_TYPE":"0","TLE_LINE2":"2 47875  53.0540 286.7438 0001497  62.2963 297.8178 15.06407431 58171","GP_ID":"199537862","REV_AT_EPOCH":"5817","MEAN_ANOMALY":"297.8178","SITE":"AFETR","ARG_OF_PERICENTER":"62.2963","FILE":"3371636","MEAN_MOTION":"15.06407431","LAUNCH_DATE":"2021-03-14","MEAN_ELEMENT_THEORY":"SGP4","NORAD_CAT_ID":"47875","COUNTRY_CODE":"US","RCS_SIZE":"LARGE"},{"ELEMENT_SET_NO":"999","OBJECT_TYPE":"PAYLOAD","TLE_LINE1":"1 47876U 21021S   22082.83876790  .00001763  00000-0  13717-3 0  9999","CENTER_NAME":"EARTH","INCLINATION":"53.0544","RA_OF_ASC_NODE":"286.7961","ECCENTRICITY":"0.00016610","TIME_SYSTEM":"UTC","REF_FRAME":"TEME","OBJECT_NAME":"STARLINK-2332","MEAN_MOTION_DDOT":"0.0000000000000","APOAPSIS":"548.328","PERIAPSIS":"546.028","SEMIMAJOR_AXIS":"6925.313","BSTAR":"0.00013717000000","CLASSIFICATION_TYPE":"U","EPOCH":"2022-03-23T20:07:49.546560","MEAN_MOTION_DOT":"0.00001763","DECAY_DATE":null,"OBJECT_ID":"2021-021S","PERIOD":"95.591","TLE_LINE2":"2 47876  53.0544 286.7961 0001661  51.4039 308.7098 15.06411617 58123","EPHEMERIS_TYPE":"0","REV_AT_EPOCH":"5812","GP_ID":"199537111","MEAN_ANOMALY":"308.7098","SITE":"AFETR","FILE":"3371636","MEAN_MOTION":"15.06411617","ARG_OF_PERICENTER":"51.4039","MEAN_ELEMENT_THEORY":"SGP4","NORAD_CAT_ID":"47876","LAUNCH_DATE":"2021-03-14","RCS_SIZE":"LARGE","COUNTRY_CODE":"US"},{"OBJECT_TYPE":"PAYLOAD","ELEMENT_SET_NO":"999","INCLINATION":"53.0545","CENTER_NAME":"EARTH","TLE_LINE1":"1 47877U 21021T   22082.85352245 -.00000377  00000-0 -63816-5 0  9995","RA_OF_ASC_NODE":"286.7252","TIME_SYSTEM":"UTC","ECCENTRICITY":"0.00017340","MEAN_MOTION_DDOT":"0.0000000000000","REF_FRAME":"TEME","OBJECT_NAME":"STARLINK-2333","SEMIMAJOR_AXIS":"6925.343","APOAPSIS":"548.409","PERIAPSIS":"546.008","CLASSIFICATION_TYPE":"U","EPOCH":"2022-03-23T20:29:04.339680","BSTAR":"-0.00000638160000","OBJECT_ID":"2021-021T","PERIOD":"95.592","MEAN_MOTION_DOT":"-0.00000377","DECAY_DATE":null,"EPHEMERIS_TYPE":"0","TLE_LINE2":"2 47877  53.0545 286.7252 0001734  61.5284 298.5880 15.06401677 58112","GP_ID":"199537361","REV_AT_EPOCH":"5811","MEAN_ANOMALY":"298.5880","SITE":"AFETR","ARG_OF_PERICENTER":"61.5284","FILE":"3371636","MEAN_MOTION":"15.06401677","LAUNCH_DATE":"2021-03-14","MEAN_ELEMENT_THEORY":"SGP4","NORAD_CAT_ID":"47877","COUNTRY_CODE":"US","RCS_SIZE":"LARGE"},{"FILE":"3371636","MEAN_MOTION":"15.06395786","ARG_OF_PERICENTER":"51.0267","MEAN_ELEMENT_THEORY":"SGP4","NORAD_CAT_ID":"47878","LAUNCH_DATE":"2021-03-14","RCS_SIZE":"LARGE","COUNTRY_CODE":"US","TLE_LINE2":"2 47878  53.0541 286.6736 0001709  51.0267 309.0874 15.06395786 57913","EPHEMERIS_TYPE":"0","REV_AT_EPOCH":"5791","GP_ID":"199537612","MEAN_ANOMALY":"309.0874","SITE":"AFETR","REF_FRAME":"TEME","OBJECT_NAME":"STARLINK-2335","MEAN_MOTION_DDOT":"0.0000000000000","PERIAPSIS":"546.043","APOAPSIS":"548.410","SEMIMAJOR_AXIS":"6925.361","BSTAR":"0.00017399000000","CLASSIFICATION_TYPE":"U","EPOCH":"2022-03-23T20:45:00.196704","DECAY_DATE":null,"MEAN_MOTION_DOT":"0.00002311","OBJECT_ID":"2021-021U","PERIOD":"95.592","ELEMENT_SET_NO":"999","OBJECT_TYPE":"PAYLOAD","TLE_LINE1":"1 47878U 21021U   22082.86458561  .00002311  00000-0  17399-3 0  9996","INCLINATION":"53.0541","CENTER_NAME":"EARTH","RA_OF_ASC_NODE":"286.6736","ECCENTRICITY":"0.00017090","TIME_SYSTEM":"UTC"},{"EPOCH":"2022-03-23T20:40:20.902656","CLASSIFICATION_TYPE":"U","BSTAR":"0.00002732900000","PERIOD":"95.593","OBJECT_ID":"2021-021V","DECAY_DATE":null,"MEAN_MOTION_DOT":"0.00000125","MEAN_MOTION_DDOT":"0.0000000000000","OBJECT_NAME":"STARLINK-2336","REF_FRAME":"TEME","SEMIMAJOR_AXIS":"6925.368","APOAPSIS":"548.371","PERIAPSIS":"546.096","RA_OF_ASC_NODE":"301.6953","TIME_SYSTEM":"UTC","ECCENTRICITY":"0.00016420","OBJECT_TYPE":"PAYLOAD","ELEMENT_SET_NO":"999","CENTER_NAME":"EARTH","INCLINATION":"53.0548","TLE_LINE1":"1 47879U 21021V   22082.86135304  .00000125  00000-0  27329-4 0  9990","LAUNCH_DATE":"2021-03-14","NORAD_CAT_ID":"47879","MEAN_ELEMENT_THEORY":"SGP4","COUNTRY_CODE":"US","RCS_SIZE":"LARGE","ARG_OF_PERICENTER":"86.1967","MEAN_MOTION":"15.06393499","FILE":"3371636","GP_ID":"199538363","REV_AT_EPOCH":"5808","SITE":"AFETR","MEAN_ANOMALY":"273.9210","TLE_LINE2":"2 47879  53.0548 301.6953 0001642  86.1967 273.9210 15.06393499 58083","EPHEMERIS_TYPE":"0"}];
